STARLINK-35794          
1 67085U 25298L   25355.25001157 -.01667220  76487-3 -54692-2 0  9992
2 67085  69.9978 225.9176 0003917 274.1951 236.6687 15.90430280  2346
STARLINK-35841          
1 67086U 25298M   25355.25001157 -.01682208  77815-3 -55009-2 0  9995
2 67086  69.9978 225.9152 0003857 274.4260 238.3812 15.90495291  2342
STARLINK-35842          
1 67087U 25298N   25355.25001157 -.01697526  79180-3 -55349-2 0  9999
2 67087  69.9978 225.9135 0003788 273.9938 240.2872 15.90555203  2341
STARLINK-35882          
1 67088U 25298P   25355.25001157 -.01642468  74513-3 -53439-2 0  9998
2 67088  69.9979 225.9114 0003751 274.9918 241.1800 15.90590003  2347
STARLINK-35763          
1 67089U 25298Q   25355.25001157 -.01667862  76713-3 -54085-2 0  9996
2 67089  69.9977 225.9089 0003734 274.7074 243.3838 15.90659190  2347
STARLINK-36060          
1 67090U 25298R   25355.25001157 -.01683047  78058-3 -54421-2 0  9999
2 67090  69.9974 225.9070 0003681 276.6616 242.9750 15.90718490  2280
STARLINK-36097          
1 67091U 25298S   25355.25001157 -.01839050  92135-3 -59186-2 0  9992
2 67091  69.9974 225.9048 0003694 272.8410 248.6720 15.90832142  2348
STARLINK-35792          
1 67092U 25298T   25355.25001157 -.01710138  80497-3 -54974-2 0  9996
2 67092  69.9975 225.9028 0003733 274.9017 248.1820 15.90837038  2286
STARLINK-35784          
1 67093U 25298U   25355.25001157 -.01724375  81794-3 -55269-2 0  9994
2 67093  69.9973 225.9007 0003664 276.8547 247.9342 15.90897354  2344
STARLINK-36202          
1 67094U 25298V   25355.25001157 -.01741212  83333-3 -55642-2 0  9990
2 67094  69.9972 225.8985 0003676 276.1870 250.5415 15.90958444  2342
STARLINK-36227          
1 67095U 25298W   25355.25001157 -.01755380  84647-3 -55929-2 0  9999
2 67095  69.9970 225.8962 0003579 273.7151 254.8089 15.91019048  2289
STARLINK-36228          
1 67096U 25298X   25355.25001157 -.01759338  85045-3 -55910-2 0  9990
2 67096  69.9971 225.8945 0003675 276.5583 253.4679 15.91069754  2288
