CCSDS_OMM_VERS = 2.0
CREATION_DATE  = 
ORIGINATOR     = 

OBJECT_NAME    = STARLINK-35794
OBJECT_ID      = 2025-298L
CENTER_NAME    = EARTH
REF_FRAME      = TEME
TIME_SYSTEM    = UTC
MEAN_ELEMENT_THEORY = SGP/SGP4

EPOCH          = 2025-12-21T06:00:00.999648
MEAN_MOTION    = 15.90430280
ECCENTRICITY   = .00039171
INCLINATION    = 69.9978
RA_OF_ASC_NODE = 225.9176
ARG_OF_PERICENTER = 274.1951
MEAN_ANOMALY   = 236.6687

EPHEMERIS_TYPE = 0
CLASSIFICATION_TYPE = U
NORAD_CAT_ID   = 67085
ELEMENT_SET_NO = 999
REV_AT_EPOCH   = 234
BSTAR          = -.54691883E-2
MEAN_MOTION_DOT = -.166722E-1
MEAN_MOTION_DDOT = .76486727E-3

CCSDS_OMM_VERS = 2.0
CREATION_DATE  = 
ORIGINATOR     = 

OBJECT_NAME    = STARLINK-35841
OBJECT_ID      = 2025-298M
CENTER_NAME    = EARTH
REF_FRAME      = TEME
TIME_SYSTEM    = UTC
MEAN_ELEMENT_THEORY = SGP/SGP4

EPOCH          = 2025-12-21T06:00:00.999648
MEAN_MOTION    = 15.90495291
ECCENTRICITY   = .00038576
INCLINATION    = 69.9978
RA_OF_ASC_NODE = 225.9152
ARG_OF_PERICENTER = 274.4260
MEAN_ANOMALY   = 238.3812

EPHEMERIS_TYPE = 0
CLASSIFICATION_TYPE = U
NORAD_CAT_ID   = 67086
ELEMENT_SET_NO = 999
REV_AT_EPOCH   = 234
BSTAR          = -.550092E-2
MEAN_MOTION_DOT = -.1682208E-1
MEAN_MOTION_DDOT = .77815123E-3

CCSDS_OMM_VERS = 2.0
CREATION_DATE  = 
ORIGINATOR     = 

OBJECT_NAME    = STARLINK-35842
OBJECT_ID      = 2025-298N
CENTER_NAME    = EARTH
REF_FRAME      = TEME
TIME_SYSTEM    = UTC
MEAN_ELEMENT_THEORY = SGP/SGP4

EPOCH          = 2025-12-21T06:00:00.999648
MEAN_MOTION    = 15.90555203
ECCENTRICITY   = .00037886
INCLINATION    = 69.9978
RA_OF_ASC_NODE = 225.9135
ARG_OF_PERICENTER = 273.9938
MEAN_ANOMALY   = 240.2872

EPHEMERIS_TYPE = 0
CLASSIFICATION_TYPE = U
NORAD_CAT_ID   = 67087
ELEMENT_SET_NO = 999
REV_AT_EPOCH   = 234
BSTAR          = -.55349179E-2
MEAN_MOTION_DOT = -.1697526E-1
MEAN_MOTION_DDOT = .79180161E-3

CCSDS_OMM_VERS = 2.0
CREATION_DATE  = 
ORIGINATOR     = 

OBJECT_NAME    = STARLINK-35882
OBJECT_ID      = 2025-298P
CENTER_NAME    = EARTH
REF_FRAME      = TEME
TIME_SYSTEM    = UTC
MEAN_ELEMENT_THEORY = SGP/SGP4

EPOCH          = 2025-12-21T06:00:00.999648
MEAN_MOTION    = 15.90590003
ECCENTRICITY   = .00037514
INCLINATION    = 69.9979
RA_OF_ASC_NODE = 225.9114
ARG_OF_PERICENTER = 274.9918
MEAN_ANOMALY   = 241.1800

EPHEMERIS_TYPE = 0
CLASSIFICATION_TYPE = U
NORAD_CAT_ID   = 67088
ELEMENT_SET_NO = 999
REV_AT_EPOCH   = 234
BSTAR          = -.53439227E-2
MEAN_MOTION_DOT = -.1642468E-1
MEAN_MOTION_DDOT = .74513252E-3

CCSDS_OMM_VERS = 2.0
CREATION_DATE  = 
ORIGINATOR     = 

OBJECT_NAME    = STARLINK-35763
OBJECT_ID      = 2025-298Q
CENTER_NAME    = EARTH
REF_FRAME      = TEME
TIME_SYSTEM    = UTC
MEAN_ELEMENT_THEORY = SGP/SGP4

EPOCH          = 2025-12-21T06:00:00.999648
MEAN_MOTION    = 15.90659190
ECCENTRICITY   = .00037343
INCLINATION    = 69.9977
RA_OF_ASC_NODE = 225.9089
ARG_OF_PERICENTER = 274.7074
MEAN_ANOMALY   = 243.3838

EPHEMERIS_TYPE = 0
CLASSIFICATION_TYPE = U
NORAD_CAT_ID   = 67089
ELEMENT_SET_NO = 999
REV_AT_EPOCH   = 234
BSTAR          = -.54085473E-2
MEAN_MOTION_DOT = -.1667862E-1
MEAN_MOTION_DDOT = .76713053E-3

CCSDS_OMM_VERS = 2.0
CREATION_DATE  = 
ORIGINATOR     = 

OBJECT_NAME    = STARLINK-36060
OBJECT_ID      = 2025-298R
CENTER_NAME    = EARTH
REF_FRAME      = TEME
TIME_SYSTEM    = UTC
MEAN_ELEMENT_THEORY = SGP/SGP4

EPOCH          = 2025-12-21T06:00:00.999648
MEAN_MOTION    = 15.90718490
ECCENTRICITY   = .00036818
INCLINATION    = 69.9974
RA_OF_ASC_NODE = 225.9070
ARG_OF_PERICENTER = 276.6616
MEAN_ANOMALY   = 242.9750

EPHEMERIS_TYPE = 0
CLASSIFICATION_TYPE = U
NORAD_CAT_ID   = 67090
ELEMENT_SET_NO = 999
REV_AT_EPOCH   = 228
BSTAR          = -.54420666E-2
MEAN_MOTION_DOT = -.1683047E-1
MEAN_MOTION_DDOT = .78057722E-3

CCSDS_OMM_VERS = 2.0
CREATION_DATE  = 
ORIGINATOR     = 

OBJECT_NAME    = STARLINK-36097
OBJECT_ID      = 2025-298S
CENTER_NAME    = EARTH
REF_FRAME      = TEME
TIME_SYSTEM    = UTC
MEAN_ELEMENT_THEORY = SGP/SGP4

EPOCH          = 2025-12-21T06:00:00.999648
MEAN_MOTION    = 15.90832142
ECCENTRICITY   = .00036941
INCLINATION    = 69.9974
RA_OF_ASC_NODE = 225.9048
ARG_OF_PERICENTER = 272.8410
MEAN_ANOMALY   = 248.6720

EPHEMERIS_TYPE = 0
CLASSIFICATION_TYPE = U
NORAD_CAT_ID   = 67091
ELEMENT_SET_NO = 999
REV_AT_EPOCH   = 234
BSTAR          = -.5918614E-2
MEAN_MOTION_DOT = -.183905E-1
MEAN_MOTION_DDOT = .92135482E-3

CCSDS_OMM_VERS = 2.0
CREATION_DATE  = 
ORIGINATOR     = 

OBJECT_NAME    = STARLINK-35792
OBJECT_ID      = 2025-298T
CENTER_NAME    = EARTH
REF_FRAME      = TEME
TIME_SYSTEM    = UTC
MEAN_ELEMENT_THEORY = SGP/SGP4

EPOCH          = 2025-12-21T06:00:00.999648
MEAN_MOTION    = 15.90837038
ECCENTRICITY   = .00037338
INCLINATION    = 69.9975
RA_OF_ASC_NODE = 225.9028
ARG_OF_PERICENTER = 274.9017
MEAN_ANOMALY   = 248.1820

EPHEMERIS_TYPE = 0
CLASSIFICATION_TYPE = U
NORAD_CAT_ID   = 67092
ELEMENT_SET_NO = 999
REV_AT_EPOCH   = 228
BSTAR          = -.54974112E-2
MEAN_MOTION_DOT = -.1710138E-1
MEAN_MOTION_DDOT = .8049731E-3

CCSDS_OMM_VERS = 2.0
CREATION_DATE  = 
ORIGINATOR     = 

OBJECT_NAME    = STARLINK-35784
OBJECT_ID      = 2025-298U
CENTER_NAME    = EARTH
REF_FRAME      = TEME
TIME_SYSTEM    = UTC
MEAN_ELEMENT_THEORY = SGP/SGP4

EPOCH          = 2025-12-21T06:00:00.999648
MEAN_MOTION    = 15.90897354
ECCENTRICITY   = .00036648
INCLINATION    = 69.9973
RA_OF_ASC_NODE = 225.9007
ARG_OF_PERICENTER = 276.8547
MEAN_ANOMALY   = 247.9342

EPHEMERIS_TYPE = 0
CLASSIFICATION_TYPE = U
NORAD_CAT_ID   = 67093
ELEMENT_SET_NO = 999
REV_AT_EPOCH   = 234
BSTAR          = -.55268803E-2
MEAN_MOTION_DOT = -.1724375E-1
MEAN_MOTION_DDOT = .8179376E-3

CCSDS_OMM_VERS = 2.0
CREATION_DATE  = 
ORIGINATOR     = 

OBJECT_NAME    = STARLINK-36202
OBJECT_ID      = 2025-298V
CENTER_NAME    = EARTH
REF_FRAME      = TEME
TIME_SYSTEM    = UTC
MEAN_ELEMENT_THEORY = SGP/SGP4

EPOCH          = 2025-12-21T06:00:00.999648
MEAN_MOTION    = 15.90958444
ECCENTRICITY   = .0003676
INCLINATION    = 69.9972
RA_OF_ASC_NODE = 225.8985
ARG_OF_PERICENTER = 276.1870
MEAN_ANOMALY   = 250.5415

EPHEMERIS_TYPE = 0
CLASSIFICATION_TYPE = U
NORAD_CAT_ID   = 67094
ELEMENT_SET_NO = 999
REV_AT_EPOCH   = 234
BSTAR          = -.55641515E-2
MEAN_MOTION_DOT = -.1741212E-1
MEAN_MOTION_DDOT = .83332738E-3

CCSDS_OMM_VERS = 2.0
CREATION_DATE  = 
ORIGINATOR     = 

OBJECT_NAME    = STARLINK-36227
OBJECT_ID      = 2025-298W
CENTER_NAME    = EARTH
REF_FRAME      = TEME
TIME_SYSTEM    = UTC
MEAN_ELEMENT_THEORY = SGP/SGP4

EPOCH          = 2025-12-21T06:00:00.999648
MEAN_MOTION    = 15.91019048
ECCENTRICITY   = .00035791
INCLINATION    = 69.9970
RA_OF_ASC_NODE = 225.8962
ARG_OF_PERICENTER = 273.7151
MEAN_ANOMALY   = 254.8089

EPHEMERIS_TYPE = 0
CLASSIFICATION_TYPE = U
NORAD_CAT_ID   = 67095
ELEMENT_SET_NO = 999
REV_AT_EPOCH   = 228
BSTAR          = -.55928704E-2
MEAN_MOTION_DOT = -.175538E-1
MEAN_MOTION_DDOT = .846473E-3

CCSDS_OMM_VERS = 2.0
CREATION_DATE  = 
ORIGINATOR     = 

OBJECT_NAME    = STARLINK-36228
OBJECT_ID      = 2025-298X
CENTER_NAME    = EARTH
REF_FRAME      = TEME
TIME_SYSTEM    = UTC
MEAN_ELEMENT_THEORY = SGP/SGP4

EPOCH          = 2025-12-21T06:00:00.999648
MEAN_MOTION    = 15.91069754
ECCENTRICITY   = .00036752
INCLINATION    = 69.9971
RA_OF_ASC_NODE = 225.8945
ARG_OF_PERICENTER = 276.5583
MEAN_ANOMALY   = 253.4679

EPHEMERIS_TYPE = 0
CLASSIFICATION_TYPE = U
NORAD_CAT_ID   = 67096
ELEMENT_SET_NO = 999
REV_AT_EPOCH   = 228
BSTAR          = -.55909853E-2
MEAN_MOTION_DOT = -.1759338E-1
MEAN_MOTION_DDOT = .85044905E-3

